[
    {
        "Altitude(m)": 611967.2076018653,
        "Argument of Periapsis(deg)": 0.0,
        "Eccentricity": 0.0,
        "Inclination(deg)": 60.0,
        "Latitude(deg)": 59.140248481565614,
        "Longitude(deg)": 126.09215538141783,
        "Mean Anomaly(deg)": 98.18179999999998,
        "RAAN(deg)": 120.0,
        "Satellite Name": "Test1 534",
        "Satellite Number": 534,
        "Semi-Major Axis(m)": 6980739.136638005,
        "Time(s)": 0
    },
    {
        "Altitude(m)": 611934.4071614615,
        "Argument of Periapsis(deg)": 0.00010418945913296404,
        "Eccentricity": 0.0,
        "Inclination(deg)": 60.0,
        "Latitude(deg)": 58.98660950384556,
        "Longitude(deg)": 127.21540332677573,
        "Mean Anomaly(deg)": 98.80190614546183,
        "RAAN(deg)": 119.99957995086024,
        "Satellite Name": "Test1 534",
        "Satellite Number": 534,
        "Semi-Major Axis(m)": 6980739.136638005,
        "Time(s)": 10
    },
    {
        "Altitude(m)": 611899.3020775457,
        "Argument of Periapsis(deg)": 0.0002083789182659281,
        "Eccentricity": 0.0,
        "Inclination(deg)": 60.0,
        "Latitude(deg)": 58.822592394703854,
        "Longitude(deg)": 128.32798581502524,
        "Mean Anomaly(deg)": 99.42201229092365,
        "RAAN(deg)": 119.99915990172052,
        "Satellite Name": "Test1 534",
        "Satellite Number": 534,
        "Semi-Major Axis(m)": 6980739.136638005,
        "Time(s)": 20
    },
    {
        "Altitude(m)": 611861.9125846112,
        "Argument of Periapsis(deg)": 0.00031256837739889213,
        "Eccentricity": 0.0,
        "Inclination(deg)": 60.0,
        "Latitude(deg)": 58.648360205531645,
        "Longitude(deg)": 129.42939105013045,
        "Mean Anomaly(deg)": 100.0421184363855,
        "RAAN(deg)": 119.99873985258075,
        "Satellite Name": "Test1 534",
        "Satellite Number": 534,
        "Semi-Major Axis(m)": 6980739.136638005,
        "Time(s)": 30
    },
    {
        "Altitude(m)": 611822.2602429844,
        "Argument of Periapsis(deg)": 0.0004167578365318562,
        "Eccentricity": 0.0,
        "Inclination(deg)": 60.0,
        "Latitude(deg)": 58.46408243668753,
        "Longitude(deg)": 130.51914798540955,
        "Mean Anomaly(deg)": 100.66222458184733,
        "RAAN(deg)": 119.99831980344103,
        "Satellite Name": "Test1 534",
        "Satellite Number": 534,
        "Semi-Major Axis(m)": 6980739.136638005,
        "Time(s)": 40
    },
    {
        "Altitude(m)": 611780.3679286208,
        "Argument of Periapsis(deg)": 0.0005209472956648203,
        "Eccentricity": 0.0,
        "Inclination(deg)": 60.0,
        "Latitude(deg)": 58.26993432096883,
        "Longitude(deg)": 131.59682554719186,
        "Mean Anomaly(deg)": 101.28233072730913,
        "RAAN(deg)": 119.99789975430127,
        "Satellite Name": "Test1 534",
        "Satellite Number": 534,
        "Semi-Major Axis(m)": 6980739.136638005,
        "Time(s)": 50
    },
    {
        "Altitude(m)": 611736.259822295,
        "Argument of Periapsis(deg)": 0.0006251367547977843,
        "Eccentricity": 0.0,
        "Inclination(deg)": 60.0,
        "Latitude(deg)": 58.06609611353957,
        "Longitude(deg)": 132.66203308134655,
        "Mean Anomaly(deg)": 101.90243687277095,
        "RAAN(deg)": 119.99747970516155,
        "Satellite Name": "Test1 534",
        "Satellite Number": 534,
        "Semi-Major Axis(m)": 6980739.136638005,
        "Time(s)": 60
    },
    {
        "Altitude(m)": 611689.9613981432,
        "Argument of Periapsis(deg)": 0.0007293262139307483,
        "Eccentricity": 0.0,
        "Inclination(deg)": 60.0,
        "Latitude(deg)": 57.85275239369901,
        "Longitude(deg)": 133.71442053003838,
        "Mean Anomaly(deg)": 102.52254301823282,
        "RAAN(deg)": 119.99705965602178,
        "Satellite Name": "Test1 534",
        "Satellite Number": 534,
        "Semi-Major Axis(m)": 6980739.136638005,
        "Time(s)": 70
    },
    {
        "Altitude(m)": 611641.4994116132,
        "Argument of Periapsis(deg)": 0.0008335156730637124,
        "Eccentricity": 0.0,
        "Inclination(deg)": 60.0,
        "Latitude(deg)": 57.63009138333398,
        "Longitude(deg)": 134.7536768482211,
        "Mean Anomaly(deg)": 103.14264916369464,
        "RAAN(deg)": 119.99663960688207,
        "Satellite Name": "Test1 534",
        "Satellite Number": 534,
        "Semi-Major Axis(m)": 6980739.136638005,
        "Time(s)": 80
    },
    {
        "Altitude(m)": 611590.9018867838,
        "Argument of Periapsis(deg)": 0.0009377051321966765,
        "Eccentricity": 0.0,
        "Inclination(deg)": 60.0,
        "Latitude(deg)": 57.39830428632383,
        "Longitude(deg)": 135.7795297095511,
        "Mean Anomaly(deg)": 103.76275530915647,
        "RAAN(deg)": 119.9962195577423,
        "Satellite Name": "Test1 534",
        "Satellite Number": 534,
        "Semi-Major Axis(m)": 6980739.136638005,
        "Time(s)": 90
    },
    {
        "Altitude(m)": 611538.198103084,
        "Argument of Periapsis(deg)": 0.0010418945913296407,
        "Eccentricity": 0.0,
        "Inclination(deg)": 60.0,
        "Latitude(deg)": 57.157584652584916,
        "Longitude(deg)": 136.79174501373444,
        "Mean Anomaly(deg)": 104.3828614546183,
        "RAAN(deg)": 119.99579950860256,
        "Satellite Name": "Test1 534",
        "Satellite Number": 534,
        "Semi-Major Axis(m)": 6980739.136638005,
        "Time(s)": 100
    },
    {
        "Altitude(m)": 611483.4185813948,
        "Argument of Periapsis(deg)": 0.0011460840504626045,
        "Eccentricity": 0.0,
        "Inclination(deg)": 60.0,
        "Latitude(deg)": 56.90812776985741,
        "Longitude(deg)": 137.79012470773327,
        "Mean Anomaly(deg)": 105.00296760008013,
        "RAAN(deg)": 119.99537945946281,
        "Satellite Name": "Test1 534",
        "Satellite Number": 534,
        "Semi-Major Axis(m)": 6980739.136638005,
        "Time(s)": 110
    },
    {
        "Altitude(m)": 611426.5950695908,
        "Argument of Periapsis(deg)": 0.0012502735095955685,
        "Eccentricity": 0.0,
        "Inclination(deg)": 60.0,
        "Latitude(deg)": 56.650130085754505,
        "Longitude(deg)": 138.7745059718206,
        "Mean Anomaly(deg)": 105.62307374554194,
        "RAAN(deg)": 119.99495941032308,
        "Satellite Name": "Test1 534",
        "Satellite Number": 534,
        "Semi-Major Axis(m)": 6980739.136638005,
        "Time(s)": 120
    },
    {
        "Altitude(m)": 611367.7605274431,
        "Argument of Periapsis(deg)": 0.0013544629687285324,
        "Eccentricity": 0.0,
        "Inclination(deg)": 60.0,
        "Latitude(deg)": 56.3837886620445,
        "Longitude(deg)": 139.74476028233812,
        "Mean Anomaly(deg)": 106.2431798910038,
        "RAAN(deg)": 119.99453936118333,
        "Satellite Name": "Test1 534",
        "Satellite Number": 534,
        "Semi-Major Axis(m)": 6980739.136638005,
        "Time(s)": 130
    },
    {
        "Altitude(m)": 611306.9491109535,
        "Argument of Periapsis(deg)": 0.0014586524278614966,
        "Eccentricity": 0.0,
        "Inclination(deg)": 60.0,
        "Latitude(deg)": 56.109300662610174,
        "Longitude(deg)": 140.7007908621434,
        "Mean Anomaly(deg)": 106.86328603646564,
        "RAAN(deg)": 119.9941193120436,
        "Satellite Name": "Test1 534",
        "Satellite Number": 534,
        "Semi-Major Axis(m)": 6980739.136638005,
        "Time(s)": 140
    },
    {
        "Altitude(m)": 611244.1961561398,
        "Argument of Periapsis(deg)": 0.0015628418869944607,
        "Eccentricity": 0.0,
        "Inclination(deg)": 60.0,
        "Latitude(deg)": 55.826862876032536,
        "Longitude(deg)": 141.64253156719496,
        "Mean Anomaly(deg)": 107.48339218192744,
        "RAAN(deg)": 119.99369926290385,
        "Satellite Name": "Test1 534",
        "Satellite Number": 534,
        "Semi-Major Axis(m)": 6980739.136638005,
        "Time(s)": 150
    },
    {
        "Altitude(m)": 611179.5381621995,
        "Argument of Periapsis(deg)": 0.0016670313461274247,
        "Eccentricity": 0.0,
        "Inclination(deg)": 60.0,
        "Latitude(deg)": 55.53667127330164,
        "Longitude(deg)": 142.56994571768251,
        "Mean Anomaly(deg)": 108.10349832738926,
        "RAAN(deg)": 119.99327921376411,
        "Satellite Name": "Test1 534",
        "Satellite Number": 534,
        "Semi-Major Axis(m)": 6980739.136638005,
        "Time(s)": 160
    },
    {
        "Altitude(m)": 611113.0127741346,
        "Argument of Periapsis(deg)": 0.0017712208052603888,
        "Eccentricity": 0.0,
        "Inclination(deg)": 60.0,
        "Latitude(deg)": 55.2389206007493,
        "Longitude(deg)": 143.4830233805268,
        "Mean Anomaly(deg)": 108.72360447285111,
        "RAAN(deg)": 119.99285916462436,
        "Satellite Name": "Test1 534",
        "Satellite Number": 534,
        "Semi-Major Axis(m)": 6980739.136638005,
        "Time(s)": 170
    },
    {
        "Altitude(m)": 611044.6587648116,
        "Argument of Periapsis(deg)": 0.001875410264393353,
        "Eccentricity": 0.0,
        "Inclination(deg)": 60.0,
        "Latitude(deg)": 54.93380400793132,
        "Longitude(deg)": 144.38178014699406,
        "Mean Anomaly(deg)": 109.34371061831294,
        "RAAN(deg)": 119.99243911548463,
        "Satellite Name": "Test1 534",
        "Satellite Number": 534,
        "Semi-Major Axis(m)": 6980739.136638005,
        "Time(s)": 180
    },
    {
        "Altitude(m)": 610974.5160164846,
        "Argument of Periapsis(deg)": 0.0019795997235263173,
        "Eccentricity": 0.0,
        "Inclination(deg)": 60.0,
        "Latitude(deg)": 54.621512709876214,
        "Longitude(deg)": 145.26625590876358,
        "Mean Anomaly(deg)": 109.96381676377474,
        "RAAN(deg)": 119.99201906634488,
        "Satellite Name": "Test1 534",
        "Satellite Number": 534,
        "Semi-Major Axis(m)": 6980739.136638005,
        "Time(s)": 190
    }
]